POEM-3
1 58695U 24001B   24072.83119717  .00668898  17855-3  76273-3 0  9994
2 58695   9.6606 223.6795 0005058  38.6474 321.4104 16.07553137 11393


XPOSAT
1 58694U 24001A   24274.70763889  .00000637  00000+0  00000+0 0  9990
2 58694   5.9310 337.4084 0023349 250.2758 358.4583 14.74444928 40446